[{"OBJECT_NAME":"STARLINK-5887","OBJECT_ID":"2023-058AJ","EPOCH":"2026-03-09T21:26:54.370176","MEAN_MOTION":15.01259494,"ECCENTRICITY":0.00012774,"INCLINATION":97.6068,"RA_OF_ASC_NODE":70.4443,"ARG_OF_PERICENTER":108.5943,"MEAN_ANOMALY":251.542,"EPHEMERIS_TYPE":0,"CLASSIFICATION_TYPE":"U","NORAD_CAT_ID":56349,"ELEMENT_SET_NO":999,"REV_AT_EPOCH":15816,"BSTAR":-8.51777e-6,"MEAN_MOTION_DOT":-1.68e-6,"MEAN_MOTION_DDOT":0},{"OBJECT_NAME":"FENGYUN 1C DEB","OBJECT_ID":"1999-025EUR","EPOCH":"2026-03-07T09:41:40.257024","MEAN_MOTION":14.25341338,"ECCENTRICITY":0.0346532,"INCLINATION":98.3608,"RA_OF_ASC_NODE":118.3108,"ARG_OF_PERICENTER":102.8707,"MEAN_ANOMALY":325.6511,"EPHEMERIS_TYPE":0,"CLASSIFICATION_TYPE":"U","NORAD_CAT_ID":38801,"ELEMENT_SET_NO":999,"REV_AT_EPOCH":65566,"BSTAR":0.00083362138,"MEAN_MOTION_DOT":3.651e-5,"MEAN_MOTION_DDOT":0}]
